GIOVE-A                 
1 28922U 05051A   09079.40086969 -.00000003  00000-0  10000-3 0  4646
2 28922  56.0636 159.7083 0007071 333.4812  26.5265  1.70191052 20052
GIOVE-B                 
1 32781U 08020A   09079.05395658 -.00000008  00000-0  10000-3 0  1453
2 32781  55.9552 194.6426 0018288 208.4634 151.4163  1.70950596  5604
